{"type":"FeatureCollection","features":[{"type":"Feature","id":1,"geometry":{"type":"Polygon","coordinates":[[[-75.538148608844963,6.2860728368996535],[-75.538161596685327,6.2860728380146602],[-75.538164418516288,6.2860728378717674],[-75.538171195256368,6.2860728393158301],[-75.538183618303819,6.2860717094165954],[-75.538184372178918,6.2860717717554637],[-75.538283496735517,6.2859408124844922],[-75.538339274499663,6.2858292083146958],[-75.538361885342965,6.2857990458126247],[-75.538726652489572,6.2857870015641994],[-75.539136639819716,6.2857538478797652],[-75.539103782736333,6.2856076869935462],[-75.539078551428503,6.2854847364734709],[-75.539088258164639,6.2853230441109398],[-75.539106294217333,6.2851558197143786],[-75.539090458805759,6.2850488217975133],[-75.539082553512046,6.2848348271445831],[-75.539098406361006,6.2846327236893629],[-75.539153867621039,6.284414767733006],[-75.539193473163252,6.2844108070198024],[-75.539454849516815,6.2845891535489606],[-75.539811273143187,6.2848745025235218],[-75.540143934855749,6.2851400345457371],[-75.540531771633113,6.2853437064039523],[-75.540568660602773,6.2852640819989389],[-75.54088940609779,6.2848813164953841],[-75.540982149702984,6.2847885243591106],[-75.541086484753379,6.2847189341070058],[-75.541144453488471,6.2845990755950876],[-75.541159929388172,6.284224024275642],[-75.541136759112277,6.2839379046501067],[-75.541124627816359,6.2838317921434816],[-75.541111397292397,6.2837170118474655],[-75.541183470889592,6.2834756845168283],[-75.541188557473887,6.2834482318025291],[-75.541180566092123,6.2833322073040003],[-75.541185908889958,6.2831181648876058],[-75.541182793384522,6.2827763974344277],[-75.541167998592726,6.282418803324294],[-75.541190239595053,6.2822216525529324],[-75.541180137481348,6.2820720858642689],[-75.541178070986817,6.28206872176668],[-75.541167675679318,6.282051800323404],[-75.541212574300303,6.2819142315268479],[-75.541237550181592,6.2818682084852293],[-75.541250366398941,6.2818213331887494],[-75.541257908469362,6.2818051563641237],[-75.541259658285853,6.2817786438706928],[-75.541259178891991,6.2817403734071595],[-75.541238339515942,6.2816864260579548],[-75.541211761580868,6.2816240820911622],[-75.54119058411203,6.2815829449088278],[-75.541180662140434,6.2815635737354674],[-75.541179735136851,6.2815606037169953],[-75.541160123174635,6.2814977946341513],[-75.541160075440658,6.2814976402632388],[-75.541159494466015,6.2814957806189593],[-75.541147599257485,6.2814652632146926],[-75.541299100905917,6.2813833406878326],[-75.54134952758443,6.2811798923813011],[-75.541359410315138,6.2810291988152764],[-75.541354481487105,6.2808365035467428],[-75.541347906617489,6.2806948677579175],[-75.54139400379924,6.2804642973168052],[-75.541410477775116,6.2801941993598662],[-75.541443405256757,6.2799899781139699],[-75.541489500323834,6.2798055218467423],[-75.541485992092646,6.2797316477802596],[-75.541503824947142,6.2796551891573484],[-75.541567507844007,6.2795277609955304],[-75.541617200258386,6.2794221437480147],[-75.541625135802448,6.2794012175419276],[-75.541635952543913,6.2793817347638941],[-75.541648214625354,6.279352871151703],[-75.5416597537602,6.2793189579812205],[-75.541671293679755,6.2792799926406202],[-75.54168067049396,6.2792525715401757],[-75.54169149017342,6.2792201012088995],[-75.541702308721597,6.2791833011007592],[-75.541716733583968,6.2791333304812156],[-75.541722863720594,6.2791131263904685],[-75.541727914109657,6.2790929212166393],[-75.541736568539065,6.2790626149957003],[-75.541749550367911,6.2790245494748929],[-75.54175892860566,6.278993884422932],[-75.541775518885714,6.2789348956387041],[-75.541785974416044,6.2789024225586507],[-75.541800041139069,6.2788603917675072],[-75.541807252757039,6.2788405467805175],[-75.541815547006891,6.278813848805699],[-75.54182492511481,6.2787839025233758],[-75.541835742333177,6.2787498093307761],[-75.541843676008369,6.2787292447815055],[-75.541847283709032,6.2787130084278022],[-75.541853775318273,6.2786924436515434],[-75.541861347180173,6.2786686323935532],[-75.541870002611745,6.2786433756246076],[-75.541876854963206,6.2786271406865701],[-75.541881542793405,6.2786141502649775],[-75.541882264114619,6.2786065748406665],[-75.541883347135155,6.2785971948641546],[-75.541883054223561,6.2785878505035129],[-75.541674648820035,6.2784991959903893],[-75.5416126561082,6.278470468860891],[-75.541605300481123,6.278467150342153],[-75.541533619393064,6.2784355201493192],[-75.541582146684846,6.2782296084358835],[-75.54158605183747,6.2782130352122749],[-75.541618830859861,6.2780793244760318],[-75.541644054464484,6.2778258603812338],[-75.541850550957435,6.277792834713396],[-75.54185058796692,6.2777928273007566],[-75.541891913624312,6.2777790667242055],[-75.541924970484445,6.2775232844585993],[-75.541949745602125,6.2773316040352514],[-75.541945906131019,6.2773144066246633],[-75.541943035300037,6.2773018733323367],[-75.54192331269698,6.2773020622518665],[-75.541923274748925,6.2773020624361902],[-75.541570071252877,6.2773229594829179],[-75.54155644075999,6.2772505811435098],[-75.541439882890216,6.2773431006163598],[-75.541163139644766,6.2775485338401573],[-75.540967777093982,6.2776878601942823],[-75.540808717560751,6.2778036001144004],[-75.540659598040406,6.2779121049767346],[-75.540473423638403,6.2780531632179848],[-75.540315266235169,6.2781707114366547],[-75.540223986105715,6.2782407873922432],[-75.540158012544211,6.2782896141270479],[-75.540098364362592,6.2783348262557119],[-75.54004052289531,6.2783764203995052],[-75.539951050977209,6.2784415239875253],[-75.539897729035232,6.2784831169801683],[-75.539838985917797,6.2785238059551389],[-75.539779336526408,6.278567662811632],[-75.539710651175994,6.2786173923310331],[-75.539648292390339,6.2786616999221323],[-75.539597682754234,6.2786978668220019],[-75.53955701338964,6.2787258981955238],[-75.539508210581076,6.2787638753940573],[-75.539459407266207,6.2787991402586982],[-75.539428677605713,6.2788226480325751],[-75.539359089565792,6.2788692157143773],[-75.53931299779569,6.2789013138713665],[-75.539268714035273,6.2789334141009983],[-75.539228045397749,6.2789623495711071],[-75.539179242302282,6.278995804391494],[-75.53912772814985,6.2790319738527538],[-75.539083443700164,6.279065428438221],[-75.539016566367138,6.2791110896812148],[-75.538985734797691,6.2791344596094403],[-75.538985280179929,6.2791348053781579],[-75.538874267733192,6.2791615977039692],[-75.538831614966099,6.2791679996600207],[-75.538844649116726,6.2792413502984727],[-75.538844690748391,6.2792415508092869],[-75.538871425577909,6.2793691720844338],[-75.538871480749435,6.2793693698172053],[-75.53891437557057,6.2794962309595705],[-75.53896774871022,6.2795555691774503],[-75.538978563034064,6.2795668786664471],[-75.538981999552888,6.2795714159994498],[-75.539034764081933,6.2796300844988089],[-75.539181894156116,6.2799156428959391],[-75.53927822876193,6.2801341701071172],[-75.539337930191436,6.2803261296770376],[-75.539337990788951,6.2803263282874129],[-75.539460636165018,6.2806715627609693],[-75.539516259650085,6.2808481604076354],[-75.539516318431964,6.2808483572185203],[-75.539569759804834,6.2810355571034115],[-75.539569814972637,6.2810357539318247],[-75.539582645571102,6.281184644885486],[-75.539583120534544,6.2813032619908027],[-75.539560823383923,6.2813969512117405],[-75.539524900479876,6.2815066352328452],[-75.5394457439685,6.2816112347116277],[-75.53936807928622,6.281721813973288],[-75.539342683597638,6.2818398659748578],[-75.539357612553374,6.2819429770183461],[-75.539357657484302,6.2819431124169069],[-75.539357672239021,6.2819431738248372],[-75.539399414504672,6.2820685070100524],[-75.53937430268175,6.2820874733471053],[-75.539372899513467,6.2820872984343561],[-75.539372773843112,6.2820872827706022],[-75.539371551500309,6.2820871313907976],[-75.539371427588804,6.2820871057732619],[-75.539061391161979,6.28199787815789],[-75.53906126812771,6.281997847111346],[-75.538867244917313,6.2819105043942667],[-75.538698576014312,6.2817960489486948],[-75.538671750319324,6.2817805805268376],[-75.538636854675005,6.2817659848679428],[-75.538636738794523,6.2817659384166298],[-75.538630470392704,6.2817809454605031],[-75.538587952301555,6.2817631726808454],[-75.538584918330272,6.2817619035691408],[-75.538584826884716,6.2817618651362128],[-75.53854181168694,6.2817781671320549],[-75.538541775611264,6.2817781808688427],[-75.538413151923976,6.2817206563266543],[-75.538333630706632,6.2816865278170848],[-75.538285132774817,6.281663699302082],[-75.538271957998433,6.2816573585146367],[-75.538266834206368,6.2816643124992328],[-75.538231417090159,6.2816923753541882],[-75.53816866564965,6.2816337778961664],[-75.538166680585448,6.2816319241546958],[-75.538136237715833,6.2815806134423617],[-75.538133717891895,6.2815763663981841],[-75.538052304161582,6.2816051443064378],[-75.537980636659725,6.2816120234140014],[-75.537935759834681,6.281612796319509],[-75.537797049709042,6.2816044717060349],[-75.537714514104934,6.281599397804329],[-75.537670543353997,6.2816047935387687],[-75.53763563209472,6.2816188546288512],[-75.537593468463228,6.2816292865381937],[-75.537533573346096,6.2816361600007129],[-75.537479904179662,6.2816446170903291],[-75.537531978849671,6.2817820210168875],[-75.537532078037103,6.2817819789464284],[-75.537571558800138,6.2817653488001062],[-75.537615097911569,6.2817484439997173],[-75.537615130732448,6.281748504416008],[-75.537648331349885,6.2818099061566146],[-75.537500742731837,6.2818823012612182],[-75.537476101960323,6.2818944509469619],[-75.537309564104689,6.2819956100940182],[-75.537309536988801,6.2819957946646241],[-75.537309536732863,6.2820065563218321],[-75.537308937979475,6.2820191119305839],[-75.537303301231617,6.2820326503429689],[-75.537314877628347,6.2820466368567933],[-75.537332207564006,6.2820687614016899],[-75.537347148167626,6.282092683161502],[-75.537357902173596,6.2821124174927458],[-75.537358499559105,6.2821243778157072],[-75.537357901159439,6.2821351414706248],[-75.537357900877453,6.2821429141303735],[-75.537358312973964,6.2821470312690755],[-75.53730946077583,6.2822517295079194],[-75.53732915555932,6.2822586118899224],[-75.537338396974263,6.2822632358881565],[-75.537344273186577,6.2822739400998211],[-75.537279804108877,6.2824232471041226],[-75.537319677581337,6.282439163113402],[-75.537328702246299,6.2824423162665175],[-75.537328820798109,6.2824423545681283],[-75.537417449173134,6.2824681058105707],[-75.537464660711834,6.2824700936007174],[-75.537457134987122,6.2825899711746738],[-75.537448653650515,6.2828335188387676],[-75.537496400114293,6.2829044778751708],[-75.537498728186563,6.282967589921463],[-75.537498850216807,6.282967600178603],[-75.537650655857391,6.2829729074369975],[-75.537651945522597,6.2829727800267685],[-75.537652017954642,6.2829728104150542],[-75.537706965845118,6.2829958689350036],[-75.537726050793523,6.2830038771562613],[-75.537726025682886,6.2830039161549838],[-75.537726173823714,6.2830039072989887],[-75.537758243203157,6.2830026540578183],[-75.537758751811836,6.2830026344111225],[-75.537758756474162,6.2830026642242141],[-75.537758846141443,6.2830032677362189],[-75.537761209644927,6.2830190682896569],[-75.537772308990739,6.2830932565256576],[-75.537778722941511,6.2831311936015917],[-75.537785204754755,6.2831695227324946],[-75.537792295892871,6.2832114599308975],[-75.53778952227259,6.2832122690123864],[-75.537689616036403,6.283241421524715],[-75.537628039746792,6.2832594003090971],[-75.537627323336352,6.2832596099238662],[-75.537627332560191,6.2832596487559194],[-75.537636445991268,6.2833001223325526],[-75.537636567201318,6.2833001497717342],[-75.537843580953066,6.2833504813985588],[-75.537821980082427,6.2834393077133344],[-75.537817410608668,6.2834580965570357],[-75.537782752295811,6.2835873476468391],[-75.537723649453412,6.283744265705181],[-75.53772292828431,6.2837442393700327],[-75.53772215108701,6.2837442114986315],[-75.537722085115476,6.2837442091065219],[-75.537556921125102,6.2836766716230947],[-75.537482871123586,6.2836122640099195],[-75.537300113588515,6.2834355994895192],[-75.537300051858637,6.2834355401176483],[-75.537299387777622,6.2834359203554833],[-75.537298475007788,6.2834364437459147],[-75.537122571368471,6.2837124777235376],[-75.537108250092672,6.2837337640420561],[-75.537090606743178,6.2837584722757835],[-75.53699991322803,6.2838853516961635],[-75.536999265634265,6.2838855917163947],[-75.536998471030756,6.2838858876009365],[-75.536998412405822,6.2838859095841322],[-75.536967104175574,6.2838628285196654],[-75.536967042506987,6.2838627818050545],[-75.536966313686619,6.2838630412057697],[-75.536965646210575,6.2838632804183217],[-75.53691399066723,6.2839895255757909],[-75.536862455579907,6.2840714622794112],[-75.536857441621038,6.2840802049734492],[-75.536820053157058,6.2841387487184992],[-75.536758102074941,6.2842371519520785],[-75.536672787273218,6.2843345637327666],[-75.536652378116273,6.2845058150300819],[-75.536648999389755,6.2845359537681214],[-75.536512111771899,6.2847918157622527],[-75.536377713642722,6.2849944125042247],[-75.536371837708955,6.2850040951401738],[-75.536371958906344,6.2850041198672555],[-75.536424298716923,6.2850147414720903],[-75.536483322867539,6.28501450387642],[-75.536601531561104,6.2850268021037143],[-75.536599228708255,6.2850483085731446],[-75.536606135659568,6.2850490770031548],[-75.536728185223794,6.2850728957552651],[-75.536747158389247,6.2850794480038132],[-75.536745837546476,6.2851005464712104],[-75.536791126490442,6.2851105341117748],[-75.53680187021196,6.2851320423563006],[-75.536830276193768,6.2851692696808881],[-75.536880641970328,6.2852028679958423],[-75.536976335075124,6.2852381530734425],[-75.537009911516833,6.2852381555542998],[-75.537058596589105,6.2852566389045359],[-75.537098934584918,6.2852907867416459],[-75.537109098160684,6.2852964378397678],[-75.537117003726848,6.2853020881446051],[-75.53712547227542,6.2853088694741315],[-75.53713337711163,6.2853179102056407],[-75.537140153281626,6.2853246907085856],[-75.53715088260472,6.2853326020538969],[-75.537159916722743,6.2853382523042081],[-75.537173467083349,6.2853484228949217],[-75.537182502105352,6.2853540731402466],[-75.537190971385257,6.2853574640411054],[-75.537200006238095,6.2853597247675896],[-75.537215252249581,6.2853631162241719],[-75.537225416503361,6.2853642476554112],[-75.537233321959732,6.2853676385800235],[-75.53724179129793,6.2853721596206498],[-75.537252521347952,6.2853766796320025],[-75.537262117483976,6.2853823298638885],[-75.537269459233187,6.2853879810939945],[-75.537283575169113,6.2853970215062223],[-75.537292045469712,6.2854026726820189],[-75.537299950135264,6.2854083229870117],[-75.537322469462239,6.285429527222381],[-75.537333827683341,6.2854478771076581],[-75.537343425128711,6.285461437413626],[-75.537350201536356,6.2854727384747493],[-75.537356976924045,6.2854817792586708],[-75.537360363948039,6.2854908202176905],[-75.537365446111764,6.2855009903212],[-75.537367138778805,6.2855066409456981],[-75.537369961979479,6.2855156819293843],[-75.537378430934751,6.2855303724285854],[-75.537388593173603,6.2855450637481134],[-75.53739480558437,6.2855529744107113],[-75.53740158041758,6.2855687951374897],[-75.537405776201581,6.2855797136279312],[-75.537407226641506,6.2855834857776083],[-75.537414001973488,6.285591396419127],[-75.537420210829808,6.2856004372392151],[-75.537425293787052,6.2856083479596379],[-75.537431503890602,6.2856241678105977],[-75.537433761462665,6.2856332088269271],[-75.537439407743094,6.2856490287025411],[-75.537457474107242,6.2856761511674657],[-75.537466508586661,6.2856885822522353],[-75.53747102585595,6.2856953628647805],[-75.537495419519658,6.2857032178022463],[-75.537489919444184,6.2857164309889866],[-75.53749361088434,6.2857213540425576],[-75.537501515910492,6.2857337851849762],[-75.537510550219764,6.2857428267505711],[-75.537519020524059,6.2857484770152761],[-75.537528053925925,6.2857575176806586],[-75.537530493068459,6.2857607723971993],[-75.537534830224985,6.2857665584550597],[-75.537542169449168,6.285775600112621],[-75.537548381802239,6.2857823797266823],[-75.537553461994094,6.2857891603169573],[-75.537560803080765,6.285799331201634],[-75.537564754780476,6.2858072419869284],[-75.537568140903957,6.2858162820425063],[-75.537570965133298,6.2858275832995467],[-75.537572094153788,6.2858366234645944],[-75.537572583755718,6.2858388325468919],[-75.537574351785238,6.2858467937153062],[-75.537577739775656,6.2858569639023667],[-75.537582819361361,6.2858693951986968],[-75.537589030994894,6.2858795661415057],[-75.537599758761417,6.2858919971366758],[-75.537605970217783,6.2858987776576525],[-75.537608791323336,6.2859021679438909],[-75.537615004582676,6.2859089475517811],[-75.537624601758594,6.2859168589520005],[-75.537633636009815,6.2859247694687719],[-75.537642107166931,6.2859292904890038],[-75.537652271777489,6.2859372009414241],[-75.537661305070827,6.2859439822254508],[-75.537670903872268,6.2859485022902035],[-75.537681632133598,6.2859530231992657],[-75.537693488887356,6.2859564139124817],[-75.537703089441038,6.2859598047313758],[-75.537713253818936,6.2859631955246265],[-75.537723418082095,6.2859643269409933],[-75.537747133282181,6.2859688489794241],[-75.537763507857576,6.2859722394519677],[-75.537772542840031,6.2859767604438348],[-75.537790610874268,6.2859835412510119],[-75.537801340943574,6.2859880621481281],[-75.537809809391646,6.2859925831777952],[-75.537819973945247,6.2859993634851463],[-75.537832395726781,6.2860084048657852],[-75.537834653793851,6.2860095348906313],[-75.537856678186529,6.2860095364342223],[-75.537867971780898,6.2860084066027797],[-75.537877006408877,6.2860061476549953],[-75.537890558802346,6.2860027592308745],[-75.537905239802896,6.2860004999869341],[-75.537915404001311,6.2860005003548354],[-75.537926697719342,6.2860016317066885],[-75.537936861134241,6.2860038923588872],[-75.537945895993033,6.2860061521625337],[-75.537958882262842,6.2860106729485326],[-75.537973563623581,6.2860151945435208],[-75.537991633350188,6.286019715957206],[-75.538001233840319,6.2860219757251619],[-75.538024949707292,6.286021978088276],[-75.538040193868085,6.2860242393794827],[-75.538058263590315,6.2860287598864124],[-75.538067297610496,6.2860321507360961],[-75.53808085029911,6.2860344121034002],[-75.53808932139448,6.2860378020699619],[-75.538101743961889,6.2860445831574951],[-75.538114165625984,6.286051364248995],[-75.53812432837988,6.286058145461225],[-75.53813279772919,6.2860626655755798],[-75.538140139495425,6.286068316785677],[-75.538148608844963,6.2860728368996535]]]},"properties":{"OBJECTID":1,"comuna":"03","barrio":"13","codigo":"0313","nombre_bar":"María Cano Carambolas","indicador_":"U","sector":1,"nombre_com":"MANRIQUE","fecha_sinc":1746144000000,"Shape_Leng":3327.52519192,"Shape_Length":3327.5251919305178,"Shape_Area":276612.27739629522}}]}